NORAD_CAT_ID,OBJECT_NAME,OBJECT_TYPE,EPOCH,MEAN_MOTION,ECCENTRICITY,INCLINATION,RA_OF_ASC_NODE,ARG_OF_PERICENTER,MEAN_ANOMALY,BSTAR,MEAN_MOTION_DOT,MEAN_MOTION_DDOT,TLE_LINE0,TLE_LINE1,TLE_LINE2,SEMIMAJOR_AXIS,PERIOD,APOGEE,PERIGEE,DECAYED
52354.0,STARLINK-3876,PAYLOAD,2024-04-07 17:19:20,15.08843283,0.0001307,53.2171,105.8826,86.5842,273.5299,8.3012e-05,1.034e-05,0.0,0 STARLINK-3876,1 52354U 22045Z   24098.72176770  .00001034  00000-0  83012-4 0  9998,2 52354  53.2171 105.8826 0001307  86.5842 273.5299 15.08843283109968,6917.87,95.437,540.64,538.831,0.0
52354.0,STARLINK-3876,PAYLOAD,2024-04-08 10:48:35,15.08837814,0.0001415,53.2178,102.6128,91.7316,268.3838,0.00015709,2.213e-05,0.0,0 STARLINK-3876,1 52354U 22045Z   24099.45041207  .00002213  00000-0  15709-3 0  9992,2 52354  53.2178 102.6128 0001415  91.7316 268.3838 15.08837814110077,6917.887,95.438,540.731,538.773,0.0
52354.0,STARLINK-3876,PAYLOAD,2024-04-08 17:10:07,15.08842227,0.0001414,53.2179,101.4232,90.4286,269.6868,0.00016357,2.316e-05,0.0,0 STARLINK-3876,1 52354U 22045Z   24099.71536989  .00002316  00000-0  16357-3 0  9991,2 52354  53.2179 101.4232 0001414  90.4286 269.6868 15.08842227110118,6917.874,95.437,540.717,538.76,0.0
52354.0,STARLINK-3876,PAYLOAD,2024-04-09 09:03:59,15.08839249,0.0001539,53.2183,98.4498,89.1739,270.9429,4.8777e-05,4.88e-06,0.0,0 STARLINK-3876,1 52354U 22045Z   24100.37777500  .00000488  00000-0  48777-4 0  9992,2 52354  53.2183  98.4498 0001539  89.1739 270.9429 15.08839249110217,6917.883,95.438,540.812,538.683,0.0
52354.0,STARLINK-3876,PAYLOAD,2024-04-09 18:36:17,15.08847689,0.0001502,53.217,96.6654,88.0607,272.0558,8.4844e-05,1.063e-05,0.0,0 STARLINK-3876,1 52354U 22045Z   24100.77520762  .00001063  00000-0  84844-4 0  9997,2 52354  53.2170  96.6654 0001502  88.0607 272.0558 15.08847689110278,6917.857,95.437,540.761,538.683,0.0
52354.0,STARLINK-3876,PAYLOAD,2024-04-10 07:19:23,15.08845485,0.0001428,53.2168,94.2869,88.9957,271.1198,7.0039e-05,8.27e-06,0.0,0 STARLINK-3876,1 52354U 22045Z   24101.30512852  .00000827  00000-0  70039-4 0  9996,2 52354  53.2168  94.2869 0001428  88.9957 271.1198 15.08845485110352,6917.864,95.437,540.716,538.741,0.0
52354.0,STARLINK-3876,PAYLOAD,2024-04-11 05:34:47,15.08835308,0.0001432,53.2172,90.1231,90.0817,270.0339,3.6329e-05,2.9e-06,0.0,0 STARLINK-3876,1 52354U 22045Z   24102.23249485  .00000290  00000-0  36329-4 0  9996,2 52354  53.2172  90.1231 0001432  90.0817 270.0339 15.08835308110492,6917.895,95.438,540.75,538.769,0.0
52354.0,STARLINK-3876,PAYLOAD,2024-04-11 08:45:33,15.08837393,0.0001414,53.2171,89.5282,89.9281,270.1873,2.1928e-05,6.1e-07,0.0,0 STARLINK-3876,1 52354U 22045Z   24102.36497395  .00000061  00000-0  21928-4 0  9990,2 52354  53.2171  89.5282 0001414  89.9281 270.1873 15.08837393110514,6917.888,95.438,540.732,538.775,0.0
52354.0,STARLINK-3876,PAYLOAD,2024-04-11 16:42:29,15.08840927,0.000142,53.2177,88.041,90.3572,269.7583,4.9098e-05,4.94e-06,0.0,0 STARLINK-3876,1 52354U 22045Z   24102.69617114  .00000494  00000-0  49098-4 0  9997,2 52354  53.2177  88.0410 0001420  90.3572 269.7583 15.08840927110567,6917.878,95.437,540.725,538.76,0.0
52354.0,STARLINK-3876,PAYLOAD,2024-04-12 08:36:20,15.08844816,0.0001529,53.2187,85.0667,93.2129,266.9038,-2.2461e-05,-6.46e-06,0.0,0 STARLINK-3876,1 52354U 22045Z   24103.35857047 -.00000646  00000-0 -22461-4 0  9998,2 52354  53.2187  85.0667 0001529  93.2129 266.9038 15.08844816110665,6917.866,95.437,540.788,538.673,0.0
52354.0,STARLINK-3876,PAYLOAD,2024-04-12 22:54:48,15.08836707,0.0001543,53.219,82.3905,93.0188,267.098,7.6468e-05,9.29e-06,0.0,0 STARLINK-3876,1 52354U 22045Z   24103.95473276  .00000929  00000-0  76468-4 0  9990,2 52354  53.2190  82.3905 0001543  93.0188 267.0980 15.08836707110751,6917.89,95.438,540.823,538.688,0.0
52354.0,STARLINK-3876,PAYLOAD,2024-04-13 05:16:21,15.08834845,0.000152,53.2191,81.2009,93.5142,266.6024,5.5022e-05,5.88e-06,0.0,0 STARLINK-3876,1 52354U 22045Z   24104.21969573  .00000588  00000-0  55022-4 0  9994,2 52354  53.2191  81.2009 0001520  93.5142 266.6024 15.08834845110794,6917.896,95.438,540.813,538.71,0.0
52354.0,STARLINK-3876,PAYLOAD,2024-04-13 08:27:08,15.08834868,0.0001522,53.2191,80.6063,93.1705,266.9461,5.3015e-05,5.56e-06,0.0,0 STARLINK-3876,1 52354U 22045Z   24104.35217623  .00000556  00000-0  53015-4 0  9996,2 52354  53.2191  80.6063 0001522  93.1705 266.9461 15.08834868110816,6917.896,95.438,540.814,538.708,0.0
52354.0,STARLINK-3876,PAYLOAD,2024-04-14 03:31:45,15.08842643,0.0001453,53.2185,77.0375,98.9688,261.1469,9.3003e-05,1.193e-05,0.0,0 STARLINK-3876,1 52354U 22045Z   24105.14705114  .00001193  00000-0  93003-4 0  9990,2 52354  53.2185  77.0375 0001453  98.9688 261.1469 15.08842643110939,6917.872,95.437,540.742,538.732,0.0
52354.0,STARLINK-3876,PAYLOAD,2024-04-15 04:57:55,15.08840874,0.0001379,53.2184,72.2812,88.3351,271.7799,9.6607e-05,1.25e-05,0.0,0 STARLINK-3876,1 52354U 22045Z   24106.20689303  .00001250  00000-0  96607-4 0  9996,2 52354  53.2184  72.2812 0001379  88.3351 271.7799 15.08840874111093,6917.878,95.437,540.697,538.789,0.0
52354.0,STARLINK-3876,PAYLOAD,2024-04-15 06:33:18,15.08840823,0.0001379,53.2184,71.9838,87.7643,272.3507,9.4059e-05,1.209e-05,0.0,0 STARLINK-3876,1 52354U 22045Z   24106.27313315  .00001209  00000-0  94059-4 0  9993,2 52354  53.2184  71.9838 0001379  87.7643 272.3507 15.08840823111104,6917.878,95.438,540.697,538.789,0.0
52354.0,STARLINK-3876,PAYLOAD,2024-04-16 04:48:43,15.08840062,0.0001747,53.22,67.8226,103.7656,256.353,-3.3665e-05,-8.24e-06,0.0,0 STARLINK-3876,1 52354U 22045Z   24107.20049874 -.00000824  00000-0 -33665-4 0  9993,2 52354  53.2200  67.8226 0001747 103.7656 256.3530 15.08840062111248,6917.88,95.438,540.954,538.537,0.0
52354.0,STARLINK-3876,PAYLOAD,2024-04-16 14:21:00,15.08858302,0.0001534,53.2194,66.0378,81.0191,279.0975,0.00019122,2.758e-05,0.0,0 STARLINK-3876,1 52354U 22045Z   24107.59792060  .00002758  00000-0  19122-3 0  9994,2 52354  53.2194  66.0378 0001534  81.0191 279.0975 15.08858302111303,6917.824,95.436,540.751,538.628,0.0
52354.0,STARLINK-3876,PAYLOAD,2024-04-17 04:39:30,15.08811921,0.0001878,53.219,63.3632,76.4435,283.6767,-0.0004206,-6.971e-05,0.0,0 STARLINK-3876,1 52354U 22045Z   24108.19410135 -.00006971  00000-0 -42060-3 0  9991,2 52354  53.2190  63.3632 0001878  76.4435 283.6767 15.08811921111397,6917.966,95.439,541.13,538.532,0.0
52354.0,STARLINK-3876,PAYLOAD,2024-04-17 06:14:54,15.08814415,0.0001672,53.2196,63.0656,84.1009,276.0173,-0.00018192,-3.18e-05,0.0,0 STARLINK-3876,1 52354U 22045Z   24108.26035151 -.00003180  00000-0 -18192-3 0  9998,2 52354  53.2196  63.0656 0001672  84.1009 276.0173 15.08814415111401,6917.959,95.439,540.98,538.667,0.0
52354.0,STARLINK-3876,PAYLOAD,2024-04-18 01:19:32,15.08817327,0.0001524,53.2178,59.4967,100.9014,259.2149,-3.7699e-05,-8.87e-06,0.0,0 STARLINK-3876,1 52354U 22045Z   24109.05523393 -.00000887  00000-0 -37699-4 0  9991,2 52354  53.2178  59.4967 0001524 100.9014 259.2149 15.08817327111528,6917.95,95.439,540.869,538.76,0.0
52354.0,STARLINK-3876,PAYLOAD,2024-04-19 01:10:14,15.08924284,0.0001389,53.2179,55.0351,71.3117,288.8026,-0.0012232,-0.00019747,0.0,0 STARLINK-3876,1 52354U 22045Z   24110.04877809 -.00019747  00000-0 -12232-2 0  9995,2 52354  53.2179  55.0351 0001389  71.3117 288.8026 15.08924284111671,6917.623,95.432,540.449,538.527,0.0
52354.0,STARLINK-3876,PAYLOAD,2024-04-19 12:17:59,15.08865979,0.0001618,53.2172,52.9506,108.3028,251.814,0.0010093,0.00015823,0.0,0 STARLINK-3876,1 52354U 22045Z   24110.51249636  .00015823  00000-0  10093-2 0  9990,2 52354  53.2172  52.9506 0001618 108.3028 251.8140 15.08865979111749,6917.801,95.436,540.785,538.547,0.0
52354.0,STARLINK-3876,PAYLOAD,2024-04-19 20:14:56,15.08841658,0.0001186,53.219,51.4728,83.8117,276.3011,0.00022814,3.345e-05,0.0,0 STARLINK-3876,1 52354U 22045Z   24110.84370595  .00003345  00000-0  22814-3 0  9996,2 52354  53.2190  51.4728 0001186  83.8117 276.3011 15.08841658111797,6917.875,95.437,540.561,538.92,0.0
52354.0,STARLINK-3876,PAYLOAD,2024-04-20 02:36:27,15.08877748,0.0001708,53.2175,50.2794,86.6978,273.421,0.0018783,0.00029763,0.0,0 STARLINK-3876,1 52354U 22045Z   24111.10865499  .00029763  00000-0  18783-2 0  9999,2 52354  53.2175  50.2794 0001708  86.6978 273.4210 15.08877748111839,6917.765,95.435,540.812,538.448,0.0
52354.0,STARLINK-3876,PAYLOAD,2024-04-20 20:05:41,15.08873586,0.0002018,53.2193,46.9986,117.4434,242.6763,0.0014785,0.00023343,0.0,0 STARLINK-3876,1 52354U 22045Z   24111.83728744  .00023343  00000-0  14785-2 0  9996,2 52354  53.2193  46.9986 0002018 117.4434 242.6763 15.08873586111948,6917.778,95.435,541.039,538.247,0.0
52354.0,STARLINK-3876,PAYLOAD,2024-04-21 00:51:51,15.08816225,0.0001219,53.2187,46.1103,106.7291,253.3835,0.00072503,0.00011262,0.0,0 STARLINK-3876,1 52354U 22045Z   24112.03600998  .00011262  00000-0  72503-3 0  9999,2 52354  53.2187  46.1103 0001219 106.7291 253.3835 15.08816225111977,6917.953,95.439,540.661,538.975,0.0
52354.0,STARLINK-3876,PAYLOAD,2024-04-21 05:38:01,15.08819573,0.0001234,53.2188,45.2263,78.2728,281.8403,0.0026515,0.00042139,0.0,0 STARLINK-3876,1 52354U 22045Z   24112.23473767  .00042139  00000-0  26515-2 0  9991,2 52354  53.2188  45.2263 0001234  78.2728 281.8403 15.08819573112001,6917.943,95.439,540.662,538.954,0.0
52354.0,STARLINK-3876,PAYLOAD,2024-04-22 00:42:39,15.08839819,0.0001705,53.2189,41.6502,122.4372,237.6785,0.001809,0.00028619,0.0,0 STARLINK-3876,1 52354U 22045Z   24113.02962934  .00028619  00000-0  18090-2 0  9994,2 52354  53.2189  41.6502 0001705 122.4372 237.6785 15.08839819112128,6917.881,95.438,540.925,538.566,0.0
52354.0,STARLINK-3876,PAYLOAD,2024-04-22 18:11:54,15.08842418,0.000169,53.2192,38.3841,120.6077,239.5082,0.00075806,0.00011798,0.0,0 STARLINK-3876,1 52354U 22045Z   24113.75827303  .00011798  00000-0  75806-3 0  9993,2 52354  53.2192  38.3841 0001690 120.6077 239.5082 15.08842418112238,6917.873,95.437,540.907,538.569,0.0
